{"type": "FeatureCollection", "features": [ {"type": "Feature", "properties": {"norad_id": 54234, "name": "NOAA 21 (JPSS-2)", "group": "weather", "lat": -49.271638150940255, "lon": 105.46378098019956, "alt_km": 834.7083538344441, "timestamp": "2025-12-25T14:48:24.448682+00:00", "meta": {"OBJECT_NAME": "NOAA 21 (JPSS-2)", "OBJECT_ID": "2022-150A", "EPOCH": "2025-12-25T05:16:06.032928", "MEAN_MOTION": 14.19527485, "ECCENTRICITY": 0.00016466, "INCLINATION": 98.7478, "RA_OF_ASC_NODE": 295.373, "ARG_OF_PERICENTER": 12.4295, "MEAN_ANOMALY": 347.6921, "EPHEMERIS_TYPE": 0, "CLASSIFICATION_TYPE": "U", "NORAD_CAT_ID": 54234, "ELEMENT_SET_NO": 999, "REV_AT_EPOCH": 16186, "BSTAR": 6.9531847e-05, "MEAN_MOTION_DOT": 1.03e-06, "MEAN_MOTION_DDOT": 0}, "tle": {"line1": "1 54234U 22150A   25359.21951427  .00000103  00000+0  69532-4 0  9995", "line2": "2 54234  98.7478 295.3730 0001646  12.4295 347.6921 14.19527485161862"}}, "geometry": {"type": "Point", "coordinates": [105.46378098019956, -49.271638150940255]}}, {"type": "Feature", "properties": {"norad_id": 54743, "name": "METEOSAT-12 (MTG-I1)", "group": "weather", "lat": -0.6721093640253569, "lon": -43.83759340109706, "alt_km": 35781.864643713474, "timestamp": "2025-12-25T14:48:24.448738+00:00", "meta": {"OBJECT_NAME": "METEOSAT-12 (MTG-I1)", "OBJECT_ID": "2022-170C", "EPOCH": "2025-12-25T02:23:21.556320", "MEAN_MOTION": 1.00270884, "ECCENTRICITY": 0.00016408, "INCLINATION": 0.6994, "RA_OF_ASC_NODE": 25.6488, "ARG_OF_PERICENTER": 241.2178, "MEAN_ANOMALY": 222.5163, "EPHEMERIS_TYPE": 0, "CLASSIFICATION_TYPE": "U", "NORAD_CAT_ID": 54743, "ELEMENT_SET_NO": 999, "REV_AT_EPOCH": 1123, "BSTAR": 0, "MEAN_MOTION_DOT": 1.3e-07, "MEAN_MOTION_DDOT": 0}, "tle": {"line1": "1 54743U 22170C   25359.09955505  .00000013  00000+0  00000+0 0  9999", "line2": "2 54743   0.6994  25.6488 0001640 241.2178 222.5163  1.00270884 11230"}}, "geometry": {"type": "Point", "coordinates": [-43.83759340109706, -0.6721093640253569]}}, {"type": "Feature", "properties": {"norad_id": 55973, "name": "TIANMU-1 03", "group": "weather", "lat": 22.31452017034293, "lon": 159.52685864850585, "alt_km": 439.50814124159206, "timestamp": "2025-12-25T14:48:24.448749+00:00", "meta": {"OBJECT_NAME": "TIANMU-1 03", "OBJECT_ID": "2023-039A", "EPOCH": "2025-12-25T06:55:07.442112", "MEAN_MOTION": 15.41287164, "ECCENTRICITY": 0.00037818, "INCLINATION": 97.5115, "RA_OF_ASC_NODE": 162.2933, "ARG_OF_PERICENTER": 24.4924, "MEAN_ANOMALY": 335.6502, "EPHEMERIS_TYPE": 0, "CLASSIFICATION_TYPE": "U", "NORAD_CAT_ID": 55973, "ELEMENT_SET_NO": 999, "REV_AT_EPOCH": 15399, "BSTAR": 0.00039866104, "MEAN_MOTION_DOT": 0.00016526, "MEAN_MOTION_DDOT": 0}, "tle": {"line1": "1 55973U 23039A   25359.28828058  .00016526  00000+0  39866-3 0  9995", "line2": "2 55973  97.5115 162.2933 0003781  24.4924 335.6502 15.41287164153999"}}, "geometry": {"type": "Point", "coordinates": [159.52685864850585, 22.31452017034293]}}, {"type": "Feature", "properties": {"norad_id": 55974, "name": "TIANMU-1 04", "group": "weather", "lat": 27.259535126083417, "lon": -14.288056746501573, "alt_km": 442.4266114437314, "timestamp": "2025-12-25T14:48:24.448760+00:00", "meta": {"OBJECT_NAME": "TIANMU-1 04", "OBJECT_ID": "2023-039B", "EPOCH": "2025-12-25T06:21:33.009696", "MEAN_MOTION": 15.4163016, "ECCENTRICITY": 0.00043782, "INCLINATION": 97.5046, "RA_OF_ASC_NODE": 161.4554, "ARG_OF_PERICENTER": 17.6388, "MEAN_ANOMALY": 342.501, "EPHEMERIS_TYPE": 0, "CLASSIFICATION_TYPE": "U", "NORAD_CAT_ID": 55974, "ELEMENT_SET_NO": 999, "REV_AT_EPOCH": 15399, "BSTAR": 0.00040222975, "MEAN_MOTION_DOT": 0.00016868, "MEAN_MOTION_DDOT": 0}, "tle": {"line1": "1 55974U 23039B   25359.26496539  .00016868  00000+0  40223-3 0  9997", "line2": "2 55974  97.5046 161.4554 0004378  17.6388 342.5010 15.41630160153993"}}, "geometry": {"type": "Point", "coordinates": [-14.288056746501573, 27.259535126083417]}}, {"type": "Feature", "properties": {"norad_id": 55975, "name": "TIANMU-1 05", "group": "weather", "lat": 13.216146789799412, "lon": -15.914725060822901, "alt_km": 445.13994240551347, "timestamp": "2025-12-25T14:48:24.448770+00:00", "meta": {"OBJECT_NAME": "TIANMU-1 05", "OBJECT_ID": "2023-039C", "EPOCH": "2025-12-25T06:17:44.886912", "MEAN_MOTION": 15.41243353, "ECCENTRICITY": 0.00039213, "INCLINATION": 97.5093, "RA_OF_ASC_NODE": 161.9455, "ARG_OF_PERICENTER": 43.7511, "MEAN_ANOMALY": 316.4045, "EPHEMERIS_TYPE": 0, "CLASSIFICATION_TYPE": "U", "NORAD_CAT_ID": 55975, "ELEMENT_SET_NO": 999, "REV_AT_EPOCH": 15397, "BSTAR": 0.00041087612, "MEAN_MOTION_DOT": 0.00017012, "MEAN_MOTION_DDOT": 0}, "tle": {"line1": "1 55975U 23039C   25359.26232508  .00017012  00000+0  41088-3 0  9994", "line2": "2 55975  97.5093 161.9455 0003921  43.7511 316.4045 15.41243353153972"}}, "geometry": {"type": "Point", "coordinates": [-15.914725060822901, 13.216146789799412]}}, {"type": "Feature", "properties": {"norad_id": 55976, "name": "TIANMU-1 06", "group": "weather", "lat": 36.80525506544517, "lon": -11.548964403978069, "alt_km": 439.39484877586347, "timestamp": "2025-12-25T14:48:24.448780+00:00", "meta": {"OBJECT_NAME": "TIANMU-1 06", "OBJECT_ID": "2023-039D", "EPOCH": "2025-12-25T06:24:04.739328", "MEAN_MOTION": 15.4168129, "ECCENTRICITY": 0.00041851, "INCLINATION": 97.5104, "RA_OF_ASC_NODE": 162.4255, "ARG_OF_PERICENTER": 37.6274, "MEAN_ANOMALY": 322.5265, "EPHEMERIS_TYPE": 0, "CLASSIFICATION_TYPE": "U", "NORAD_CAT_ID": 55976, "ELEMENT_SET_NO": 999, "REV_AT_EPOCH": 15399, "BSTAR": 0.00040025191, "MEAN_MOTION_DOT": 0.00016813, "MEAN_MOTION_DDOT": 0}, "tle": {"line1": "1 55976U 23039D   25359.26672152  .00016813  00000+0  40025-3 0  9996", "line2": "2 55976  97.5104 162.4255 0004185  37.6274 322.5265 15.41681290153991"}}, "geometry": {"type": "Point", "coordinates": [-11.548964403978069, 36.80525506544517]}}, {"type": "Feature", "properties": {"norad_id": 56232, "name": "FENGYUN 3G", "group": "weather", "lat": 6.843312951360391, "lon": -24.794285043308868, "alt_km": 411.596729932804, "timestamp": "2025-12-25T14:48:24.448806+00:00", "meta": {"OBJECT_NAME": "FENGYUN 3G", "OBJECT_ID": "2023-055A", "EPOCH": "2025-12-25T06:20:50.610624", "MEAN_MOTION": 15.52057994, "ECCENTRICITY": 0.000394, "INCLINATION": 49.9926, "RA_OF_ASC_NODE": 162.8065, "ARG_OF_PERICENTER": 289.0842, "MEAN_ANOMALY": 70.9698, "EPHEMERIS_TYPE": 0, "CLASSIFICATION_TYPE": "U", "NORAD_CAT_ID": 56232, "ELEMENT_SET_NO": 999, "REV_AT_EPOCH": 15297, "BSTAR": 0.00051015393, "MEAN_MOTION_DOT": 0.00031043, "MEAN_MOTION_DDOT": 0}, "tle": {"line1": "1 56232U 23055A   25359.26447466  .00031043  00000+0  51015-3 0  9991", "line2": "2 56232  49.9926 162.8065 0003940 289.0842  70.9698 15.52057994152976"}}, "geometry": {"type": "Point", "coordinates": [-24.794285043308868, 6.843312951360391]}}, {"type": "Feature", "properties": {"norad_id": 57166, "name": "METEOR-M2 3", "group": "weather", "lat": -15.107472283524961, "lon": 55.28173527474182, "alt_km": 814.1895704209164, "timestamp": "2025-12-25T14:48:24.448818+00:00", "meta": {"OBJECT_NAME": "METEOR-M2 3", "OBJECT_ID": "2023-091A", "EPOCH": "2025-12-25T06:26:48.385248", "MEAN_MOTION": 14.24027548, "ECCENTRICITY": 0.0003243, "INCLINATION": 98.6361, "RA_OF_ASC_NODE": 52.5882, "ARG_OF_PERICENTER": 329.6003, "MEAN_ANOMALY": 30.4988, "EPHEMERIS_TYPE": 0, "CLASSIFICATION_TYPE": "U", "NORAD_CAT_ID": 57166, "ELEMENT_SET_NO": 999, "REV_AT_EPOCH": 12976, "BSTAR": 2.0040202e-05, "MEAN_MOTION_DOT": 3e-08, "MEAN_MOTION_DDOT": 0}, "tle": {"line1": "1 57166U 23091A   25359.26861557  .00000003  00000+0  20040-4 0  9996", "line2": "2 57166  98.6361  52.5882 0003243 329.6003  30.4988 14.24027548129769"}}, "geometry": {"type": "Point", "coordinates": [55.28173527474182, -15.107472283524961]}}, {"type": "Feature", "properties": {"norad_id": 57399, "name": "TIANMU-1 07", "group": "weather", "lat": -48.5912103813688, "lon": 57.5240605806974, "alt_km": 488.3755598136895, "timestamp": "2025-12-25T14:48:24.448829+00:00", "meta": {"OBJECT_NAME": "TIANMU-1 07", "OBJECT_ID": "2023-101A", "EPOCH": "2025-12-25T07:09:50.863104", "MEAN_MOTION": 15.28247081, "ECCENTRICITY": 0.00049984, "INCLINATION": 97.2856, "RA_OF_ASC_NODE": 48.8712, "ARG_OF_PERICENTER": 49.2168, "MEAN_ANOMALY": 310.9505, "EPHEMERIS_TYPE": 0, "CLASSIFICATION_TYPE": "U", "NORAD_CAT_ID": 57399, "ELEMENT_SET_NO": 999, "REV_AT_EPOCH": 13507, "BSTAR": 0.00028731028, "MEAN_MOTION_DOT": 7.838e-05, "MEAN_MOTION_DDOT": 0}, "tle": {"line1": "1 57399U 23101A   25359.29850536  .00007838  00000+0  28731-3 0  9991", "line2": "2 57399  97.2856  48.8712 0004998  49.2168 310.9505 15.28247081135079"}}, "geometry": {"type": "Point", "coordinates": [57.5240605806974, -48.5912103813688]}}, {"type": "Feature", "properties": {"norad_id": 57400, "name": "TIANMU-1 08", "group": "weather", "lat": 47.380869529796435, "lon": -123.03082152293337, "alt_km": 476.5297650983357, "timestamp": "2025-12-25T14:48:24.448840+00:00", "meta": {"OBJECT_NAME": "TIANMU-1 08", "OBJECT_ID": "2023-101B", "EPOCH": "2025-12-25T06:22:27.507360", "MEAN_MOTION": 15.28228864, "ECCENTRICITY": 0.0006926, "INCLINATION": 97.2844, "RA_OF_ASC_NODE": 48.6348, "ARG_OF_PERICENTER": 48.3834, "MEAN_ANOMALY": 311.7998, "EPHEMERIS_TYPE": 0, "CLASSIFICATION_TYPE": "U", "NORAD_CAT_ID": 57400, "ELEMENT_SET_NO": 999, "REV_AT_EPOCH": 13506, "BSTAR": 0.00027428765, "MEAN_MOTION_DOT": 7.477e-05, "MEAN_MOTION_DDOT": 0}, "tle": {"line1": "1 57400U 23101B   25359.26559615  .00007477  00000+0  27429-3 0  9997", "line2": "2 57400  97.2844  48.6348 0006926  48.3834 311.7998 15.28228864135067"}}, "geometry": {"type": "Point", "coordinates": [-123.03082152293337, 47.380869529796435]}}]}